{
  "norad_id": 52496,
  "name": "STARLINK-3871",
  "history": [
    {
      "epoch": "2026-03-28T22:07:41.473056Z",
      "apogee_km": 540.5956916700543,
      "perigee_km": 538.8842089125528,
      "latitude_deg": -9.785003771268513e-06,
      "longitude_deg": 159.52748004317036,
      "height_km": 540.7255058710821,
      "semi_major_axis_km": 6917.876950291303,
      "eccentricity": 0.0001237,
      "inclination_deg": 53.2172,
      "raan_deg": 317.7858,
      "arg_perigee_deg": 96.0163,
      "mean_anomaly_deg": 264.097,
      "mean_motion_rev_day": 15.08841125
    },
    {
      "epoch": "2026-03-28T22:07:41.473920Z",
      "apogee_km": 540.5959683851324,
      "perigee_km": 538.8839321974738,
      "latitude_deg": -1.34587388820896e-05,
      "longitude_deg": 159.5274737017929,
      "height_km": 540.7255348736525,
      "semi_major_axis_km": 6917.876950291303,
      "eccentricity": 0.00012374,
      "inclination_deg": 53.2172,
      "raan_deg": 317.7858,
      "arg_perigee_deg": 96.0163,
      "mean_anomaly_deg": 264.097,
      "mean_motion_rev_day": 15.08841125
    },
    {
      "epoch": "2026-03-29T21:58:28.888896Z",
      "apogee_km": 540.6387942138672,
      "perigee_km": 538.8636640942659,
      "latitude_deg": 3.400006542512682e-05,
      "longitude_deg": 156.39090589612113,
      "height_km": 540.7275196620122,
      "semi_major_axis_km": 6917.888229154066,
      "eccentricity": 0.0001283,
      "inclination_deg": 53.2182,
      "raan_deg": 313.3261,
      "arg_perigee_deg": 95.1968,
      "mean_anomaly_deg": 264.9171,
      "mean_motion_rev_day": 15.08837435
    },
    {
      "epoch": "2026-03-29T21:58:28.889760Z",
      "apogee_km": 540.6386558561016,
      "perigee_km": 538.8638024520305,
      "latitude_deg": 3.5839500588561204e-05,
      "longitude_deg": 156.39090365388356,
      "height_km": 540.7275071302604,
      "semi_major_axis_km": 6917.888229154066,
      "eccentricity": 0.00012828,
      "inclination_deg": 53.2182,
      "raan_deg": 313.3261,
      "arg_perigee_deg": 95.1968,
      "mean_anomaly_deg": 264.9171,
      "mean_motion_rev_day": 15.08837435
    },
    {
      "epoch": "2026-03-30T21:49:14.606112Z",
      "apogee_km": 540.6638373892838,
      "perigee_km": 538.7482866454111,
      "latitude_deg": 3.993747942632634e-05,
      "longitude_deg": 153.26040124481565,
      "height_km": 540.6627978990795,
      "semi_major_axis_km": 6917.843062017348,
      "eccentricity": 0.00013845,
      "inclination_deg": 53.219,
      "raan_deg": 308.8654,
      "arg_perigee_deg": 93.6451,
      "mean_anomaly_deg": 266.47,
      "mean_motion_rev_day": 15.08852212
    }
  ]
}